[{"OBJECT_NAME":"STARLINK-5753","OBJECT_ID":"2023-020N","EPOCH":"2026-03-09T04:40:40.135008","MEAN_MOTION":15.02539554,"ECCENTRICITY":0.00012443,"INCLINATION":43.0065,"RA_OF_ASC_NODE":7.4343,"ARG_OF_PERICENTER":269.1232,"MEAN_ANOMALY":90.9468,"EPHEMERIS_TYPE":0,"CLASSIFICATION_TYPE":"U","NORAD_CAT_ID":55581,"ELEMENT_SET_NO":999,"REV_AT_EPOCH":16884,"BSTAR":-9.278982e-6,"MEAN_MOTION_DOT":-3.29e-6,"MEAN_MOTION_DDOT":0},{"OBJECT_NAME":"CZ-6A DEB","OBJECT_ID":"2024-140JQ","EPOCH":"2026-03-09T16:05:49.477056","MEAN_MOTION":15.15394204,"ECCENTRICITY":0.00800164,"INCLINATION":89.0638,"RA_OF_ASC_NODE":284.0631,"ARG_OF_PERICENTER":105.771,"MEAN_ANOMALY":255.2376,"EPHEMERIS_TYPE":0,"CLASSIFICATION_TYPE":"U","NORAD_CAT_ID":60861,"ELEMENT_SET_NO":999,"REV_AT_EPOCH":8511,"BSTAR":0.0025246282,"MEAN_MOTION_DOT":0.00051962,"MEAN_MOTION_DDOT":0}]
